$$SOE
2460714.500000000, A.D. 2025-Feb-08 00:00:00.0000, 2.656604190360430E+08, 1.572734889605632E+08, 1.579840149864276E+07,
2460721.500000000, A.D. 2025-Feb-15 00:00:00.0000, 2.587486669609153E+08, 1.692208385109810E+08, 1.743797864862832E+07,
2460728.500000000, A.D. 2025-Feb-22 00:00:00.0000, 2.514139571645941E+08, 1.808916521070410E+08, 1.904905198526756E+07,
2460735.500000000, A.D. 2025-Mar-01 00:00:00.0000, 2.436708509035367E+08, 1.922687142145816E+08, 2.062918309093158E+07,
2460742.500000000, A.D. 2025-Mar-08 00:00:00.0000, 2.355348300160472E+08, 2.033358462939894E+08, 2.217605103679471E+07,
2460749.500000000, A.D. 2025-Mar-15 00:00:00.0000, 2.270221990011276E+08, 2.140779647179448E+08, 2.368746129710154E+07,
2460756.500000000, A.D. 2025-Mar-22 00:00:00.0000, 2.181499812042237E+08, 2.244811261564927E+08, 2.516135338968629E+07,
2460763.500000000, A.D. 2025-Mar-29 00:00:00.0000, 2.089358141883265E+08, 2.345325594865753E+08, 2.659580680944036E+07,
2460770.500000000, A.D. 2025-Apr-05 00:00:00.0000, 1.993978460666149E+08, 2.442206874637719E+08, 2.798904546991864E+07,
2460777.500000000, A.D. 2025-Apr-12 00:00:00.0000, 1.895546322407669E+08, 2.535351385621132E+08, 2.933944085390307E+07,
2460784.500000000, A.D. 2025-Apr-19 00:00:00.0000, 1.794250336299291E+08, 2.624667485833802E+08, 3.064551385890919E+07,
2460791.500000000, A.D. 2025-Apr-26 00:00:00.0000, 1.690281178109301E+08, 2.710075524665924E+08, 3.190593535833947E+07,
2460798.500000000, A.D. 2025-May-03 00:00:00.0000, 1.583830641902460E+08, 2.791507670732179E+08, 3.311952554961687E+07,
2460805.500000000, A.D. 2025-May-10 00:00:00.0000, 1.475090740898925E+08, 2.868907658069484E+08, 3.428525218208079E+07,
2460812.500000000, A.D. 2025-May-17 00:00:00.0000, 1.364252864791492E+08, 2.942230459423208E+08, 3.540222776356313E+07,
2460819.500000000, A.D. 2025-May-24 00:00:00.0000, 1.251507000629110E+08, 3.011441895610887E+08, 3.646970583839928E+07,
2460826.500000000, A.D. 2025-May-31 00:00:00.0000, 1.137041025286633E+08, 3.076518193747594E+08, 3.748707644156668E+07,
2460833.500000000, A.D. 2025-Jun-07 00:00:00.0000, 1.021040067943544E+08, 3.137445515950948E+08, 3.845386098262392E+07,
2460840.500000000, A.D. 2025-Jun-14 00:00:00.0000, 9.036859200104414E+07, 3.194219461021172E+08, 3.936970683651221E+07,
2460847.500000000, A.D. 2025-Jun-21 00:00:00.0000, 7.851565044520500E+07, 3.246844515117805E+08, 4.023438137431288E+07,
2460854.500000000, A.D. 2025-Jun-28 00:00:00.0000, 6.656254346267980E+07, 3.295333477394933E+08, 4.104776540033524E+07,
2460861.500000000, A.D. 2025-Jul-05 00:00:00.0000, 5.452616454919443E+07, 3.339706889686468E+08, 4.180984641002804E+07,
2460868.500000000, A.D. 2025-Jul-12 00:00:00.0000, 4.242290824825983E+07, 3.379992468918005E+08, 4.252071180229284E+07,
2460875.500000000, A.D. 2025-Jul-19 00:00:00.0000, 3.026864465964240E+07, 3.416224542489309E+08, 4.318054206386735E+07,
2460882.500000000, A.D. 2025-Jul-26 00:00:00.0000, 1.807869940017673E+07, 3.448443491289020E+08, 4.378960397486854E+07,
2460889.500000000, A.D. 2025-Aug-02 00:00:00.0000, 5.867838674730700E+06, 3.476695205016855E+08, 4.434824389487740E+07,
2460896.500000000, A.D. 2025-Aug-09 00:00:00.0000, -6.349740944805159E+06, 3.501030553386172E+08, 4.485688118070966E+07,
2460903.500000000, A.D. 2025-Aug-16 00:00:00.0000, -1.856041838878823E+07, 3.521504875597060E+08, 4.531600176941018E+07,
2460910.500000000, A.D. 2025-Aug-23 00:00:00.0000, -3.075114974680016E+07, 3.538177490622926E+08, 4.572615193856661E+07,
2460917.500000000, A.D. 2025-Aug-30 00:00:00.0000, -4.290946580676024E+07, 3.551111237250580E+08, 4.608793230218582E+07,
2460924.500000000, A.D. 2025-Sep-06 00:00:00.0000, -5.502346730035081E+07, 3.560372055158290E+08, 4.640199227672446E+07,
2460931.500000000, A.D. 2025-Sep-13 00:00:00.0000, -6.708181990790907E+07, 3.566028582927103E+08, 4.666902498191841E+07,
2460938.500000000, A.D. 2025-Sep-20 00:00:00.0000, -7.907374611759350E+07, 3.568151756765447E+08, 4.688976214977887E+07,
2460945.500000000, A.D. 2025-Sep-27 00:00:00.0000, -9.098901323042345E+07, 3.566814441056028E+08, 4.706496920458330E+07,
2460952.500000000, A.D. 2025-Oct-04 00:00:00.0000, -1.028179198481188E+08, 3.562091095848733E+08, 4.719544074488363E+07,
2460959.500000000, A.D. 2025-Oct-11 00:00:00.0000, -1.145512815118999E+08, 3.554057471345427E+08, 4.728199638373905E+07,
2460966.500000000, A.D. 2025-Oct-18 00:00:00.0000, -1.261804154755382E+08, 3.542790325947389E+08, 4.732547689538449E+07,
2460973.500000000, A.D. 2025-Oct-25 00:00:00.0000, -1.376971247106962E+08, 3.528367167136365E+08, 4.732674064999130E+07,
2460980.500000000, A.D. 2025-Nov-01 00:00:00.0000, -1.490936813159253E+08, 3.510866014357679E+08, 4.728666032473575E+07,
2460987.500000000, A.D. 2025-Nov-08 00:00:00.0000, -1.603628094819258E+08, 3.490365182492865E+08, 4.720611987392528E+07,
2460994.500000000, A.D. 2025-Nov-15 00:00:00.0000, -1.714976680307200E+08, 3.466943084167977E+08, 4.708601172712047E+07,
2461001.500000000, A.D. 2025-Nov-22 00:00:00.0000, -1.824918322714408E+08, 3.440678051894931E+08, 4.692723418299991E+07,
2461008.500000000, A.D. 2025-Nov-29 00:00:00.0000, -1.933392754531288E+08, 3.411648190190396E+08, 4.673068909235594E+07,
2461015.500000000, A.D. 2025-Dec-06 00:00:00.0000, -2.040343522011691E+08, 3.379931255139543E+08, 4.649728001468085E+07,
2461022.500000000, A.D. 2025-Dec-13 00:00:00.0000, -2.145717835921606E+08, 3.345604526525632E+08, 4.622791051923819E+07,
2461029.500000000, A.D. 2025-Dec-20 00:00:00.0000, -2.249466404493846E+08, 3.308744681553218E+08, 4.592348237987573E+07,
2461036.500000000, A.D. 2025-Dec-27 00:00:00.0000, -2.351543260003434E+08, 3.269427694974536E+08, 4.558489396129644E+07,
2461043.500000000, A.D. 2026-Jan-03 00:00:00.0000, -2.451905594076882E+08, 3.227728758439491E+08, 4.521303886805461E+07,
2461050.500000000, A.D. 2026-Jan-10 00:00:00.0000, -2.550513601028951E+08, 3.183722211271765E+08, 4.480880477839077E+07,
2461057.500000000, A.D. 2026-Jan-17 00:00:00.0000, -2.647330327205972E+08, 3.137481480789216E+08, 4.437307242221300E+07,
2461064.500000000, A.D. 2026-Jan-24 00:00:00.0000, -2.742321525781609E+08, 3.089079031485501E+08, 4.390671468658595E+07,
2461071.500000000, A.D. 2026-Jan-31 00:00:00.0000, -2.835455516924052E+08, 3.038586322142314E+08, 4.341059583511443E+07,
2461078.500000000, A.D. 2026-Feb-07 00:00:00.0000, -2.926703052813272E+08, 2.986073769492502E+08, 4.288557082060762E+07,
2461085.500000000, A.D. 2026-Feb-14 00:00:00.0000, -3.016037185024437E+08, 2.931610717525268E+08, 4.233248465696426E+07,
2461092.500000000, A.D. 2026-Feb-21 00:00:00.0000, -3.103433130413054E+08, 2.875265417500155E+08, 4.175217185311818E+07,
2461099.500000000, A.D. 2026-Feb-28 00:00:00.0000, -3.188868146340109E+08, 2.817105029561077E+08, 4.114545609494281E+07,
2461106.500000000, A.D. 2026-Mar-07 00:00:00.0000, -3.272321435786633E+08, 2.757195625881714E+08, 4.051315019751613E+07,
2461113.500000000, A.D. 2026-Mar-14 00:00:00.0000, -3.353774054497545E+08, 2.695602171488078E+08, 3.985605587571703E+07,
2461120.500000000, A.D. 2026-Mar-21 00:00:00.0000, -3.433208802194405E+08, 2.632388511213627E+08, 3.917496339989255E+07,
2461127.500000000, A.D. 2026-Mar-28 00:00:00.0000, -3.510610117845601E+08, 2.567617372610274E+08, 3.847065139916950E+07,
2461134.500000000, A.D. 2026-Apr-04 00:00:00.0000, -3.585963984901011E+08, 2.501350374759514E+08, 3.774388678351514E+07,
2461141.500000000, A.D. 2026-Apr-11 00:00:00.0000, -3.659257843590505E+08, 2.433648039006218E+08, 3.699542472488697E+07,
2461148.500000000, A.D. 2026-Apr-18 00:00:00.0000, -3.730480508525706E+08, 2.364569801192856E+08, 3.622600867759319E+07,
2461155.500000000, A.D. 2026-Apr-25 00:00:00.0000, -3.799622090979103E+08, 2.294174025217754E+08, 3.543637043059227E+07,
2461162.500000000, A.D. 2026-May-02 00:00:00.0000, -3.866673925365236E+08, 2.222518017330401E+08, 3.462723018263099E+07,
2461169.500000000, A.D. 2026-May-09 00:00:00.0000, -3.931628498507611E+08, 2.149658040241657E+08, 3.379929661985520E+07,
2461176.500000000, A.D. 2026-May-16 00:00:00.0000, -3.994479377737272E+08, 2.075649328199821E+08, 3.295326696925995E+07,
2461183.500000000, A.D. 2026-May-23 00:00:00.0000, -4.055221137125650E+08, 2.000546113045017E+08, 3.208982710368304E+07,
2461190.500000000, A.D. 2026-May-30 00:00:00.0000, -4.113849302462415E+08, 1.924401664244267E+08, 3.120965191216791E+07,
2461197.500000000, A.D. 2026-Jun-06 00:00:00.0000, -4.170360317983614E+08, 1.847268310002901E+08, 3.031340569458618E+07,
2461204.500000000, A.D. 2026-Jun-13 00:00:00.0000, -4.224751498003585E+08, 1.769197441279578E+08, 2.940174225805701E+07,
2461211.500000000, A.D. 2026-Jun-20 00:00:00.0000, -4.277020968290641E+08, 1.690239527791660E+08, 2.847530499799952E+07,
2461218.500000000, A.D. 2026-Jun-27 00:00:00.0000, -4.327167614054758E+08, 1.610444142469571E+08, 2.753472708993962E+07,
2461225.500000000, A.D. 2026-Jul-04 00:00:00.0000, -4.375191034442782E+08, 1.529859986516005E+08, 2.658063172709124E+07,
2461232.500000000, A.D. 2026-Jul-11 00:00:00.0000, -4.421091500878494E+08, 1.448534913674713E+08, 2.561363236800412E+07,
2461239.500000000, A.D. 2026-Jul-18 00:00:00.0000, -4.464869918187678E+08, 1.366515953894195E+08, 2.463433298626839E+07,
2461246.500000000, A.D. 2026-Jul-25 00:00:00.0000, -4.506527788131267E+08, 1.283849336344240E+08, 2.364332831876041E+07,
2461253.500000000, A.D. 2026-Aug-01 00:00:00.0000, -4.546067174737816E+08, 1.200580511239190E+08, 2.264120410275496E+07,
2461260.500000000, A.D. 2026-Aug-08 00:00:00.0000, -4.583490669165140E+08, 1.116754170050154E+08, 2.162853727812146E+07,
2461267.500000000, A.D. 2026-Aug-15 00:00:00.0000, -4.618801349825170E+08, 1.032414268557305E+08, 2.060589615237839E+07,
2461274.500000000, A.D. 2026-Aug-22 00:00:00.0000, -4.652002745274815E+08, 9.476040649066131E+07, 1.957384069739238E+07,
2461281.500000000, A.D. 2026-Aug-29 00:00:00.0000, -4.683098822674186E+08, 8.623661589017990E+07, 1.853292307477815E+07,
$$EOE